$$SOE
2461295.500000000, A.D. 2026-Sep-12 00:00:00.0000, 6.792450830257832E+06, -3.627221404509548E+08, 1.019115201935463E+07,
2461302.500000000, A.D. 2026-Sep-19 00:00:00.0000, 1.842266812136941E+07, -3.641906020181751E+08, 8.724903249533132E+06,
2461309.500000000, A.D. 2026-Sep-26 00:00:00.0000, 3.003450253301974E+07, -3.652948193643144E+08, 7.249923892967835E+06,
2461316.500000000, A.D. 2026-Oct-03 00:00:00.0000, 4.161678791910208E+07, -3.660391583177199E+08, 5.767797931664363E+06,
2461323.500000000, A.D. 2026-Oct-10 00:00:00.0000, 5.315872410445755E+07, -3.664282723805425E+08, 4.280070599771529E+06,
2461330.500000000, A.D. 2026-Oct-17 00:00:00.0000, 6.464987636702785E+07, -3.664670783412682E+08, 2.788247707860485E+06,
2461337.500000000, A.D. 2026-Oct-24 00:00:00.0000, 7.608017365983431E+07, -3.661607330739262E+08, 1.293795154776350E+06,
2461344.500000000, A.D. 2026-Oct-31 00:00:00.0000, 8.743990580733936E+07, -3.655146116123192E+08, -2.018614040741622E+05,
2461351.500000000, A.D. 2026-Nov-07 00:00:00.0000, 9.871972014312434E+07, -3.645342864373309E+08, -1.697336772859156E+06,
2461358.500000000, A.D. 2026-Nov-14 00:00:00.0000, 1.099106179091824E+08, -3.632255070921299E+08, -3.191286276959255E+06,
2461365.500000000, A.D. 2026-Nov-21 00:00:00.0000, 1.210039487162774E+08, -3.615941794356429E+08, -4.682405462809905E+06,
2461372.500000000, A.D. 2026-Nov-28 00:00:00.0000, 1.319914021711952E+08, -3.596463475250520E+08, -6.169429604221374E+06,
2461379.500000000, A.D. 2026-Dec-05 00:00:00.0000, 1.428650003884776E+08, -3.573881787607281E+08, -7.651133413929015E+06,
2461386.500000000, A.D. 2026-Dec-12 00:00:00.0000, 1.536170916425685E+08, -3.548259491575036E+08, -9.126330733369187E+06,
2461393.500000000, A.D. 2026-Dec-19 00:00:00.0000, 1.642403433557585E+08, -3.519660287069484E+08, -1.059387403832531E+07,
2461400.500000000, A.D. 2026-Dec-26 00:00:00.0000, 1.747277343546296E+08, -3.488148676655914E+08, -1.205265382886346E+07,
2461407.500000000, A.D. 2027-Jan-02 00:00:00.0000, 1.850725467389213E+08, -3.453789839241565E+08, -1.350159795427431E+07,
2461414.500000000, A.D. 2027-Jan-09 00:00:00.0000, 1.952683575407864E+08, -3.416649513999308E+08, -1.493967089118756E+07,
2461421.500000000, A.D. 2027-Jan-16 00:00:00.0000, 2.053090302638321E+08, -3.376793894039309E+08, -1.636587298578885E+07,
2461428.500000000, A.D. 2027-Jan-23 00:00:00.0000, 2.151887063960986E+08, -3.334289529813503E+08, -1.777923967535764E+07,
2461435.500000000, A.D. 2027-Jan-30 00:00:00.0000, 2.249017971285488E+08, -3.289203242317146E+08, -1.917884071734186E+07,
2461442.500000000, A.D. 2027-Feb-06 00:00:00.0000, 2.344429757434742E+08, -3.241602042292085E+08, -2.056377944355993E+07,
2461449.500000000, A.D. 2027-Feb-13 00:00:00.0000, 2.438071702467241E+08, -3.191553042858491E+08, -2.193319190348485E+07,
2461456.500000000, A.D. 2027-Feb-20 00:00:00.0000, 2.529895539081082E+08, -3.139123373102638E+08, -2.328624574982373E+07,
2461463.500000000, A.D. 2027-Feb-27 00:00:00.0000, 2.619855351299447E+08, -3.084380124353567E+08, -2.462213926192811E+07,
2461470.500000000, A.D. 2027-Mar-06 00:00:00.0000, 2.707907496847121E+08, -3.027390309528919E+08, -2.594010063109639E+07,
2461477.500000000, A.D. 2027-Mar-13 00:00:00.0000, 2.794010537425349E+08, -2.968220814695449E+08, -2.723938719742003E+07,
2461484.500000000, A.D. 2027-Mar-20 00:00:00.0000, 2.878125165766579E+08, -2.906938350848768E+08, -2.851928460628682E+07,
2461491.500000000, A.D. 2027-Mar-27 00:00:00.0000, 2.960214131635261E+08, -2.843609411070589E+08, -2.977910595102303E+07,
2461498.500000000, A.D. 2027-Apr-03 00:00:00.0000, 3.040242168924623E+08, -2.778300233225472E+08, -3.101819092691001E+07,
2461505.500000000, A.D. 2027-Apr-10 00:00:00.0000, 3.118175924554971E+08, -2.711076767669265E+08, -3.223590500266409E+07,
2461512.500000000, A.D. 2027-Apr-17 00:00:00.0000, 3.193983889452968E+08, -2.642004649828099E+08, -3.343163861449750E+07,
2461519.500000000, A.D. 2027-Apr-24 00:00:00.0000, 3.267636332427615E+08, -2.571149177983982E+08, -3.460480639651158E+07,
2461526.500000000, A.D. 2027-May-01 00:00:00.0000, 3.339105239948660E+08, -2.498575295692261E+08, -3.575484647353640E+07,
2461533.500000000, A.D. 2027-May-08 00:00:00.0000, 3.408364264929393E+08, -2.424347571059136E+08, -3.688121978416426E+07,
2461540.500000000, A.D. 2027-May-15 00:00:00.0000, 3.475388669591935E+08, -2.348530163098290E+08, -3.798340921966965E+07,
2461547.500000000, A.D. 2027-May-22 00:00:00.0000, 3.540155246806472E+08, -2.271186800869983E+08, -3.906091864820345E+07,
2461554.500000000, A.D. 2027-May-29 00:00:00.0000, 3.602642253468335E+08, -2.192380789879465E+08, -4.011327225285640E+07,
2461561.500000000, A.D. 2027-Jun-05 00:00:00.0000, 3.662829364762981E+08, -2.112175014228460E+08, -4.114001400941679E+07,
2461568.500000000, A.D. 2027-Jun-12 00:00:00.0000, 3.720697629234862E+08, -2.030631930035024E+08, -4.214070708482397E+07,
2461575.500000000, A.D. 2027-Jun-19 00:00:00.0000, 3.776229421322687E+08, -1.947813559309845E+08, -4.311493320249203E+07,
2461582.500000000, A.D. 2027-Jun-26 00:00:00.0000, 3.829408394118981E+08, -1.863781486740491E+08, -4.406229202138145E+07,
2461589.500000000, A.D. 2027-Jul-03 00:00:00.0000, 3.880219433637918E+08, -1.778596859144603E+08, -4.498240054003175E+07,
2461596.500000000, A.D. 2027-Jul-10 00:00:00.0000, 3.928648614923334E+08, -1.692320387359363E+08, -4.587489252794978E+07,
2461603.500000000, A.D. 2027-Jul-17 00:00:00.0000, 3.974683160321546E+08, -1.605012350823019E+08, -4.673941799055693E+07,
2461610.500000000, A.D. 2027-Jul-24 00:00:00.0000, 4.018311401435796E+08, -1.516732605352253E+08, -4.757564268678010E+07,
2461617.500000000, A.D. 2027-Jul-31 00:00:00.0000, 4.059522748824689E+08, -1.427540591634412E+08, -4.838324771723490E+07,
2461624.500000000, A.D. 2027-Aug-07 00:00:00.0000, 4.098307667405214E+08, -1.337495332796216E+08, -4.916192907005823E+07,
2461631.500000000, A.D. 2027-Aug-14 00:00:00.0000, 4.134657634535939E+08, -1.246655423492945E+08, -4.991139693404987E+07,
2461638.500000000, A.D. 2027-Aug-21 00:00:00.0000, 4.168565086920536E+08, -1.155079044090075E+08, -5.063137511068953E+07,
2461645.500000000, A.D. 2027-Aug-28 00:00:00.0000, 4.200023390574397E+08, -1.062823987818798E+08, -5.132160074086290E+07,
2461652.500000000, A.D. 2027-Sep-04 00:00:00.0000, 4.229026821990673E+08, -9.699476757935458E+07, -5.198182403299253E+07,
2461659.500000000, A.D. 2027-Sep-11 00:00:00.0000, 4.255570546510565E+08, -8.765071664283182E+07, -5.261180791832373E+07,
2461666.500000000, A.D. 2027-Sep-18 00:00:00.0000, 4.279650595185503E+08, -7.825591656810874E+07, -5.321132769839395E+07,
2461673.500000000, A.D. 2027-Sep-25 00:00:00.0000, 4.301263842377044E+08, -6.881600388289545E+07, -5.378017071174045E+07,
2461680.500000000, A.D. 2027-Oct-02 00:00:00.0000, 4.320407984809260E+08, -5.933658234256999E+07, -5.431813602435543E+07,
2461687.500000000, A.D. 2027-Oct-09 00:00:00.0000, 4.337081522271749E+08, -4.982322434193586E+07, -5.482503414641693E+07,
2461694.500000000, A.D. 2027-Oct-16 00:00:00.0000, 4.351283740584303E+08, -4.028147249214979E+07, -5.530068678584956E+07,
2461701.500000000, A.D. 2027-Oct-23 00:00:00.0000, 4.363014699395988E+08, -3.071684136388250E+07, -5.574492666324435E+07,
2461708.500000000, A.D. 2027-Oct-30 00:00:00.0000, 4.372275228527331E+08, -2.113481878153119E+07, -5.615759737251702E+07,
2461715.500000000, A.D. 2027-Nov-06 00:00:00.0000, 4.379066921198095E+08, -1.154086553442521E+07, -5.653855308825517E+07,
2461722.500000000, A.D. 2027-Nov-13 00:00:00.0000, 4.383392104292912E+08, -1.940415577237919E+06, -5.688765810769184E+07,
2461729.500000000, A.D. 2027-Nov-20 00:00:00.0000, 4.385253814664235E+08, 7.661121096443955E+06, -5.720478667218272E+07,
2461736.500000000, A.D. 2027-Nov-27 00:00:00.0000, 4.384655797604619E+08, 1.725835587545371E+07, -5.748982297377384E+07,
2461743.500000000, A.D. 2027-Dec-04 00:00:00.0000, 4.381602507228378E+08, 2.684592016571334E+07, -5.774266108623915E+07,
2461750.500000000, A.D. 2027-Dec-11 00:00:00.0000, 4.376099103246528E+08, 3.641846427797173E+07, -5.796320484878826E+07,
2461757.500000000, A.D. 2027-Dec-18 00:00:00.0000, 4.368151446875098E+08, 4.597065623252269E+07, -5.815136775531627E+07,
2461764.500000000, A.D. 2027-Dec-25 00:00:00.0000, 4.357766097383701E+08, 5.549718048120209E+07, -5.830707286317144E+07,
2461771.500000000, A.D. 2028-Jan-01 00:00:00.0000, 4.344950309678959E+08, 6.499273656334369E+07, -5.843025272371593E+07,
$$EOE